{"type": "FeatureCollection", "features": [ {"type": "Feature", "properties": {"norad_id": 66624, "name": "STARLINK-35927", "group": "last-30-days", "lat": 39.2073706376175, "lon": -100.66569195773833, "alt_km": 332.0368077077819, "timestamp": "2025-12-05T16:54:13.487066+00:00", "meta": {"OBJECT_NAME": "STARLINK-35927", "OBJECT_ID": "2025-271H", "EPOCH": "2025-12-05T04:31:39.458496", "MEAN_MOTION": 15.78996813, "ECCENTRICITY": 0.00022332, "INCLINATION": 53.1562, "RA_OF_ASC_NODE": 224.1974, "ARG_OF_PERICENTER": 213.08, "MEAN_ANOMALY": 147.0082, "EPHEMERIS_TYPE": 0, "CLASSIFICATION_TYPE": "U", "NORAD_CAT_ID": 66624, "ELEMENT_SET_NO": 999, "REV_AT_EPOCH": 302, "BSTAR": -0.0047492104, "MEAN_MOTION_DOT": -0.00786598, "MEAN_MOTION_DDOT": 0}, "tle": {"line1": "1 66624U 25271H   25339.18865114 -.00786598  00000+0 -47492-2 0  9999", "line2": "2 66624  53.1562 224.1974 0002233 213.0800 147.0082 15.78996813  3025"}}, "geometry": {"type": "Point", "coordinates": [-100.66569195773833, 39.2073706376175]}}, {"type": "Feature", "properties": {"norad_id": 66625, "name": "STARLINK-35929", "group": "last-30-days", "lat": 42.4735254517895, "lon": -95.04161325741005, "alt_km": 326.81533442360706, "timestamp": "2025-12-05T16:54:13.487078+00:00", "meta": {"OBJECT_NAME": "STARLINK-35929", "OBJECT_ID": "2025-271J", "EPOCH": "2025-12-04T19:24:13.592160", "MEAN_MOTION": 15.80096982, "ECCENTRICITY": 0.00025493, "INCLINATION": 53.1566, "RA_OF_ASC_NODE": 226.092, "ARG_OF_PERICENTER": 320.0589, "MEAN_ANOMALY": 40.0246, "EPHEMERIS_TYPE": 0, "CLASSIFICATION_TYPE": "U", "NORAD_CAT_ID": 66625, "ELEMENT_SET_NO": 999, "REV_AT_EPOCH": 296, "BSTAR": -0.0023514157, "MEAN_MOTION_DOT": -0.00427227, "MEAN_MOTION_DDOT": 0}, "tle": {"line1": "1 66625U 25271J   25338.80849065 -.00427227  00000+0 -23514-2 0  9995", "line2": "2 66625  53.1566 226.0920 0002549 320.0589  40.0246 15.80096982  2962"}}, "geometry": {"type": "Point", "coordinates": [-95.04161325741005, 42.4735254517895]}}, {"type": "Feature", "properties": {"norad_id": 66626, "name": "STARLINK-35902", "group": "last-30-days", "lat": 8.227784917045177, "lon": 35.23121526308722, "alt_km": 131.43362933874778, "timestamp": "2025-12-05T16:54:13.487108+00:00", "meta": {"OBJECT_NAME": "STARLINK-35902", "OBJECT_ID": "2025-271K", "EPOCH": "2025-12-04T16:20:49.968096", "MEAN_MOTION": 15.86445814, "ECCENTRICITY": 0.0034757, "INCLINATION": 53.156, "RA_OF_ASC_NODE": 226.7204, "ARG_OF_PERICENTER": 215.7244, "MEAN_ANOMALY": 144.1456, "EPHEMERIS_TYPE": 0, "CLASSIFICATION_TYPE": "U", "NORAD_CAT_ID": 66626, "ELEMENT_SET_NO": 999, "REV_AT_EPOCH": 294, "BSTAR": 0.043583, "MEAN_MOTION_DOT": 0.08830048, "MEAN_MOTION_DDOT": 0.12235}, "tle": {"line1": "1 66626U 25271K   25338.68113389  .08830048  12235+0  43583-1 0  9990", "line2": "2 66626  53.1560 226.7204 0034757 215.7244 144.1456 15.86445814  2948"}}, "geometry": {"type": "Point", "coordinates": [35.23121526308722, 8.227784917045177]}}, {"type": "Feature", "properties": {"norad_id": 66627, "name": "STARLINK-35904", "group": "last-30-days", "lat": 49.512429677749175, "lon": -76.97794136013505, "alt_km": 321.9893861523906, "timestamp": "2025-12-05T16:54:13.487117+00:00", "meta": {"OBJECT_NAME": "STARLINK-35904", "OBJECT_ID": "2025-271L", "EPOCH": "2025-12-04T20:53:36.822048", "MEAN_MOTION": 15.81648134, "ECCENTRICITY": 0.0009708, "INCLINATION": 53.1559, "RA_OF_ASC_NODE": 225.7674, "ARG_OF_PERICENTER": 244.3636, "MEAN_ANOMALY": 115.6385, "EPHEMERIS_TYPE": 0, "CLASSIFICATION_TYPE": "U", "NORAD_CAT_ID": 66627, "ELEMENT_SET_NO": 999, "REV_AT_EPOCH": 293, "BSTAR": 0.0034623, "MEAN_MOTION_DOT": 0.00775594, "MEAN_MOTION_DDOT": 0}, "tle": {"line1": "1 66627U 25271L   25338.87056507  .00775594  00000+0  34623-2 0  9999", "line2": "2 66627  53.1559 225.7674 0009708 244.3636 115.6385 15.81648134  2936"}}, "geometry": {"type": "Point", "coordinates": [-76.97794136013505, 49.512429677749175]}}, {"type": "Feature", "properties": {"norad_id": 66628, "name": "STARLINK-35862", "group": "last-30-days", "lat": 37.33798651534993, "lon": -103.48361667945542, "alt_km": 362.7128880163982, "timestamp": "2025-12-05T16:54:13.487126+00:00", "meta": {"OBJECT_NAME": "STARLINK-35862", "OBJECT_ID": "2025-271M", "EPOCH": "2025-12-05T04:29:21.043104", "MEAN_MOTION": 15.75331783, "ECCENTRICITY": 0.00292278, "INCLINATION": 53.1565, "RA_OF_ASC_NODE": 224.1852, "ARG_OF_PERICENTER": 300.1043, "MEAN_ANOMALY": 59.7081, "EPHEMERIS_TYPE": 0, "CLASSIFICATION_TYPE": "U", "NORAD_CAT_ID": 66628, "ELEMENT_SET_NO": 999, "REV_AT_EPOCH": 302, "BSTAR": -0.043866785, "MEAN_MOTION_DOT": -0.05803272, "MEAN_MOTION_DDOT": 0}, "tle": {"line1": "1 66628U 25271M   25339.18704911 -.05803272  00000+0 -43867-1 0  9995", "line2": "2 66628  53.1565 224.1852 0029227 300.1043  59.7081 15.75331783  3020"}}, "geometry": {"type": "Point", "coordinates": [-103.48361667945542, 37.33798651534993]}}, {"type": "Feature", "properties": {"norad_id": 66629, "name": "STARLINK-35956", "group": "last-30-days", "lat": 46.59285744715007, "lon": -85.95077843779133, "alt_km": 340.32952117658715, "timestamp": "2025-12-05T16:54:13.487135+00:00", "meta": {"OBJECT_NAME": "STARLINK-35956", "OBJECT_ID": "2025-271N", "EPOCH": "2025-12-05T05:58:56.604864", "MEAN_MOTION": 15.78470183, "ECCENTRICITY": 0.00069761, "INCLINATION": 53.1542, "RA_OF_ASC_NODE": 223.8713, "ARG_OF_PERICENTER": 229.6453, "MEAN_ANOMALY": 130.396, "EPHEMERIS_TYPE": 0, "CLASSIFICATION_TYPE": "U", "NORAD_CAT_ID": 66629, "ELEMENT_SET_NO": 999, "REV_AT_EPOCH": 303, "BSTAR": -0.016516188, "MEAN_MOTION_DOT": -0.02510683, "MEAN_MOTION_DDOT": 0}, "tle": {"line1": "1 66629U 25271N   25339.24926626 -.02510683  00000+0 -16516-1 0  9991", "line2": "2 66629  53.1542 223.8713 0006976 229.6453 130.3960 15.78470183  3038"}}, "geometry": {"type": "Point", "coordinates": [-85.95077843779133, 46.59285744715007]}}, {"type": "Feature", "properties": {"norad_id": 66630, "name": "STARLINK-35949", "group": "last-30-days", "lat": 53.01121936993193, "lon": -53.90086214914693, "alt_km": 314.75009957449583, "timestamp": "2025-12-05T16:54:13.487144+00:00", "meta": {"OBJECT_NAME": "STARLINK-35949", "OBJECT_ID": "2025-271P", "EPOCH": "2025-12-04T16:18:42.866784", "MEAN_MOTION": 15.82414283, "ECCENTRICITY": 0.0013011, "INCLINATION": 53.1561, "RA_OF_ASC_NODE": 226.7087, "ARG_OF_PERICENTER": 255.5421, "MEAN_ANOMALY": 104.4159, "EPHEMERIS_TYPE": 0, "CLASSIFICATION_TYPE": "U", "NORAD_CAT_ID": 66630, "ELEMENT_SET_NO": 999, "REV_AT_EPOCH": 294, "BSTAR": 0.0072798, "MEAN_MOTION_DOT": 0.01751673, "MEAN_MOTION_DDOT": 0}, "tle": {"line1": "1 66630U 25271P   25338.67966281  .01751673  00000+0  72798-2 0  9998", "line2": "2 66630  53.1561 226.7087 0013011 255.5421 104.4159 15.82414283  2943"}}, "geometry": {"type": "Point", "coordinates": [-53.90086214914693, 53.01121936993193]}}, {"type": "Feature", "properties": {"norad_id": 66631, "name": "STARLINK-35965", "group": "last-30-days", "lat": 51.97078440590212, "lon": -64.95116053401951, "alt_km": 326.18525633539684, "timestamp": "2025-12-05T16:54:13.487155+00:00", "meta": {"OBJECT_NAME": "STARLINK-35965", "OBJECT_ID": "2025-271Q", "EPOCH": "2025-12-04T22:22:01.610112", "MEAN_MOTION": 15.81644206, "ECCENTRICITY": 0.0009959, "INCLINATION": 53.1559, "RA_OF_ASC_NODE": 225.4384, "ARG_OF_PERICENTER": 249.18, "MEAN_ANOMALY": 110.8157, "EPHEMERIS_TYPE": 0, "CLASSIFICATION_TYPE": "U", "NORAD_CAT_ID": 66631, "ELEMENT_SET_NO": 999, "REV_AT_EPOCH": 298, "BSTAR": -0.00084971, "MEAN_MOTION_DOT": -0.00171858, "MEAN_MOTION_DDOT": 0}, "tle": {"line1": "1 66631U 25271Q   25338.93196308 -.00171858  00000+0 -84971-3 0  9992", "line2": "2 66631  53.1559 225.4384 0009959 249.1800 110.8157 15.81644206  2985"}}, "geometry": {"type": "Point", "coordinates": [-64.95116053401951, 51.97078440590212]}}, {"type": "Feature", "properties": {"norad_id": 66632, "name": "STARLINK-35973", "group": "last-30-days", "lat": 53.05953736762844, "lon": -44.216191318303764, "alt_km": 319.1837459643639, "timestamp": "2025-12-05T16:54:13.487163+00:00", "meta": {"OBJECT_NAME": "STARLINK-35973", "OBJECT_ID": "2025-271R", "EPOCH": "2025-12-05T05:55:20.151264", "MEAN_MOTION": 15.84396697, "ECCENTRICITY": 0.00203835, "INCLINATION": 53.1555, "RA_OF_ASC_NODE": 223.8443, "ARG_OF_PERICENTER": 290.7056, "MEAN_ANOMALY": 69.1783, "EPHEMERIS_TYPE": 0, "CLASSIFICATION_TYPE": "U", "NORAD_CAT_ID": 66632, "ELEMENT_SET_NO": 999, "REV_AT_EPOCH": 299, "BSTAR": 0.0065888113, "MEAN_MOTION_DOT": 0.01794338, "MEAN_MOTION_DDOT": 0}, "tle": {"line1": "1 66632U 25271R   25339.24676101  .01794338  00000+0  65888-2 0  9990", "line2": "2 66632  53.1555 223.8443 0020383 290.7056  69.1783 15.84396697  2992"}}, "geometry": {"type": "Point", "coordinates": [-44.216191318303764, 53.05953736762844]}}, {"type": "Feature", "properties": {"norad_id": 66633, "name": "STARLINK-35948", "group": "last-30-days", "lat": 53.118876390517464, "lon": -50.41276837808657, "alt_km": 316.3003008415035, "timestamp": "2025-12-05T16:54:13.487173+00:00", "meta": {"OBJECT_NAME": "STARLINK-35948", "OBJECT_ID": "2025-271S", "EPOCH": "2025-12-05T02:54:02.678976", "MEAN_MOTION": 15.827094, "ECCENTRICITY": 0.00180308, "INCLINATION": 53.1552, "RA_OF_ASC_NODE": 224.4831, "ARG_OF_PERICENTER": 319.8155, "MEAN_ANOMALY": 40.1535, "EPHEMERIS_TYPE": 0, "CLASSIFICATION_TYPE": "U", "NORAD_CAT_ID": 66633, "ELEMENT_SET_NO": 999, "REV_AT_EPOCH": 301, "BSTAR": 0.00851054, "MEAN_MOTION_DOT": 0.02140129, "MEAN_MOTION_DDOT": 0}, "tle": {"line1": "1 66633U 25271S   25339.12086434  .02140129  00000+0  85105-2 0  9990", "line2": "2 66633  53.1552 224.4831 0018030 319.8155  40.1535 15.82709400  3013"}}, "geometry": {"type": "Point", "coordinates": [-50.41276837808657, 53.118876390517464]}}]}